DANTESAT                
1 55127U 98067UU  23014.26037094  .00826962  00000+0  70135-2 0  9991
2 55127  51.6386  10.0766 0007276 118.8645 241.3082 15.66918564  2504
TJREVERB                
1 55128U 98067UV  23014.26403595  .00083828  00000+0  13663-2 0  9994
2 55128  51.6426  10.8541 0003814 291.9673  68.0912 15.51885006  2523
SPORT                   
1 55129U 98067UW  23014.26738254  .00047255  00000+0  79687-3 0  9991
2 55129  51.6431  10.8762 0002133 278.0579  82.0168 15.51184997  2529
PETITSAT                
1 55130U 98067UX  23014.26716432  .00130071  00000+0  21223-2 0  9998
2 55130  51.6423  10.8746 0001802 267.3207  92.7577 15.51639870  2476
1998-067UY              
1 55181U 98067UY  23013.30374372  .00076173  00000+0  12668-2 0  9996
2 55181  51.6420  15.6895 0003372 220.7424 139.3314 15.51365324  1088
HSKSAT                  
1 55182U 98067UZ  23013.30324872  .00053376  00000+0  89317-3 0  9993
2 55182  51.6419  15.6864 0002840 204.3389 155.7467 15.51346832  1095
1998-067VA              
1 55183U 98067VA  23013.68993105  .00045842  00000+0  77010-3 0  9992
2 55183  51.6426  13.7692 0005126 299.8594  60.1886 15.51295548  1157
DRAGON CRS-26 DEB       
1 55241U 22159B   23014.34215962  .01218689  11272-4  12676-2 0  9994
2 55241  51.6375   9.1025 0101771 169.7471 190.5852 15.99770613   485
